[{"OBJECT_NAME":"STARLINK-5311","OBJECT_ID":"2023-010V","EPOCH":"2026-03-09T23:37:12.408096","MEAN_MOTION":14.98345855,"ECCENTRICITY":0.00028196,"INCLINATION":70.0071,"RA_OF_ASC_NODE":23.7081,"ARG_OF_PERICENTER":254.1785,"MEAN_ANOMALY":105.9063,"EPHEMERIS_TYPE":0,"CLASSIFICATION_TYPE":"U","NORAD_CAT_ID":55288,"ELEMENT_SET_NO":999,"REV_AT_EPOCH":17331,"BSTAR":0.00096810895,"MEAN_MOTION_DOT":0.00011482,"MEAN_MOTION_DDOT":0},{"OBJECT_NAME":"EZIE-A","OBJECT_ID":"2025-052AP","EPOCH":"2026-03-09T23:28:40.313568","MEAN_MOTION":14.96303626,"ECCENTRICITY":0.00037417,"INCLINATION":97.7004,"RA_OF_ASC_NODE":322.7329,"ARG_OF_PERICENTER":145.0909,"MEAN_ANOMALY":215.0559,"EPHEMERIS_TYPE":0,"CLASSIFICATION_TYPE":"U","NORAD_CAT_ID":63247,"ELEMENT_SET_NO":999,"REV_AT_EPOCH":5382,"BSTAR":0.00071342701,"MEAN_MOTION_DOT":8.013e-5,"MEAN_MOTION_DDOT":0}]
